ONEWEB-0012             
1 44057U 19010A   25277.44741133  .00000083  00000+0  18255-3 0  9995
2 44057  87.8958 279.7562 0001648  78.9331 281.1986 13.16593244317919
ONEWEB-0010             
1 44058U 19010B   25277.47274168  .00000021  00000+0  21929-4 0  9993
2 44058  87.8968 279.7351 0001821 103.0733 257.0601 13.16593500317962
ONEWEB-0008             
1 44059U 19010C   25277.42207554 -.00000066  00000+0 -20678-3 0  9994
2 44059  87.8964 279.7420 0002086  87.6327 272.5042 13.16593652318078
ONEWEB-0007             
1 44060U 19010D   25277.48219003  .00000018  00000+0  14329-4 0  9996
2 44060  87.8995 310.2603 0001609 100.5091 259.6220 13.15547444317756
ONEWEB-0006             
1 44061U 19010E   25277.48614098  .00000066  00000+0  14022-3 0  9992
2 44061  87.9000 310.2012 0001747 102.0222 258.1104 13.15546716317807
ONEWEB-0011             
1 44062U 19010F   25277.45445361  .00000108  00000+0  25250-3 0  9997
2 44062  87.8992 310.2198 0002058  98.7707 261.3656 13.15547442317790
ONEWEB-0013             
1 45131U 20008A   25277.49718987  .00000287  00000+0  79677-3 0  9995
2 45131  87.8464 104.4655 0001432  50.0597 310.0656 13.09437998272605
ONEWEB-0017             
1 45132U 20008B   25276.43851305 -.00000395  00000+0 -11676-2 0  9997
2 45132  87.8742  87.4671 0001703  98.8136 261.3184 13.10375094274328
ONEWEB-0020             
1 45133U 20008C   25277.47765934  .00000424  00000+0  11781-2 0  9993
2 45133  87.8738  87.2424 0001867  90.1879 269.9462 13.10370127274851
ONEWEB-0021             
1 45134U 20008D   25277.49257976 -.00000422  00000+0 -12446-2 0  9997
2 45134  87.8738  87.2737 0001589  92.2610 267.8699 13.10371106275168
ONEWEB-0023             
1 45136U 20008F   25277.50336978 -.00000572  00000+0 -16763-2 0  9993
2 45136  87.8743  87.2535 0001797  83.2148 276.9183 13.10373453274591
ONEWEB-0024             
1 45137U 20008G   25277.47599873  .00000420  00000+0  11662-2 0  9998
2 45137  87.8758  87.2148 0001619  92.6972 267.4340 13.10372049274758
ONEWEB-0025             
1 45138U 20008H   25277.49340538 -.00000441  00000+0 -12988-2 0  9990
2 45138  87.8753  87.2207 0001337  70.5629 289.5643 13.10370917275081
ONEWEB-0026             
1 45139U 20008J   25277.48809122  .00000389  00000+0  10623-2 0  9992
2 45139  87.8801  71.9918 0001817  98.1067 262.0267 13.11418117277592
ONEWEB-0028             
1 45140U 20008K   25277.44484213 -.00000027  00000+0 -11134-3 0  9990
2 45140  87.8794  72.0202 0001334  73.2816 286.8458 13.11413290275101
ONEWEB-0032             
1 45141U 20008L   25276.44017120 -.00000522  00000+0 -15329-2 0  9998
2 45141  87.8743  87.4668 0001573  83.9927 276.1379 13.10376112274673
ONEWEB-0033             
1 45142U 20008M   25277.48428935  .00000094  00000+0  23240-3 0  9998
2 45142  87.8739  87.2701 0001717  97.2948 262.8374 13.10370925274725
