[{"OBJECT_NAME":"ONEWEB-0012","OBJECT_ID":"2019-010A","EPOCH":"2025-10-04T10:44:16.338912","MEAN_MOTION":13.16593244,"ECCENTRICITY":0.0001648,"INCLINATION":87.8958,"RA_OF_ASC_NODE":279.7562,"ARG_OF_PERICENTER":78.9331,"MEAN_ANOMALY":281.1986,"EPHEMERIS_TYPE":0,"CLASSIFICATION_TYPE":"U","NORAD_CAT_ID":44057,"ELEMENT_SET_NO":999,"REV_AT_EPOCH":31791,"BSTAR":0.00018255,"MEAN_MOTION_DOT":8.3e-7,"MEAN_MOTION_DDOT":0},{"OBJECT_NAME":"ONEWEB-0010","OBJECT_ID":"2019-010B","EPOCH":"2025-10-04T11:20:44.881152","MEAN_MOTION":13.165935,"ECCENTRICITY":0.0001821,"INCLINATION":87.8968,"RA_OF_ASC_NODE":279.7351,"ARG_OF_PERICENTER":103.0733,"MEAN_ANOMALY":257.0601,"EPHEMERIS_TYPE":0,"CLASSIFICATION_TYPE":"U","NORAD_CAT_ID":44058,"ELEMENT_SET_NO":999,"REV_AT_EPOCH":31796,"BSTAR":2.1929e-5,"MEAN_MOTION_DOT":2.1e-7,"MEAN_MOTION_DDOT":0},{"OBJECT_NAME":"ONEWEB-0008","OBJECT_ID":"2019-010C","EPOCH":"2025-10-04T10:07:47.326656","MEAN_MOTION":13.16593652,"ECCENTRICITY":0.0002086,"INCLINATION":87.8964,"RA_OF_ASC_NODE":279.742,"ARG_OF_PERICENTER":87.6327,"MEAN_ANOMALY":272.5042,"EPHEMERIS_TYPE":0,"CLASSIFICATION_TYPE":"U","NORAD_CAT_ID":44059,"ELEMENT_SET_NO":999,"REV_AT_EPOCH":31807,"BSTAR":-0.00020678,"MEAN_MOTION_DOT":-6.6e-7,"MEAN_MOTION_DDOT":0},{"OBJECT_NAME":"ONEWEB-0007","OBJECT_ID":"2019-010D","EPOCH":"2025-10-04T11:34:21.218592","MEAN_MOTION":13.15547444,"ECCENTRICITY":0.0001609,"INCLINATION":87.8995,"RA_OF_ASC_NODE":310.2603,"ARG_OF_PERICENTER":100.5091,"MEAN_ANOMALY":259.622,"EPHEMERIS_TYPE":0,"CLASSIFICATION_TYPE":"U","NORAD_CAT_ID":44060,"ELEMENT_SET_NO":999,"REV_AT_EPOCH":31775,"BSTAR":1.4329e-5,"MEAN_MOTION_DOT":1.8e-7,"MEAN_MOTION_DDOT":0},{"OBJECT_NAME":"ONEWEB-0006","OBJECT_ID":"2019-010E","EPOCH":"2025-10-04T11:40:02.580672","MEAN_MOTION":13.15546716,"ECCENTRICITY":0.0001747,"INCLINATION":87.9,"RA_OF_ASC_NODE":310.2012,"ARG_OF_PERICENTER":102.0222,"MEAN_ANOMALY":258.1104,"EPHEMERIS_TYPE":0,"CLASSIFICATION_TYPE":"U","NORAD_CAT_ID":44061,"ELEMENT_SET_NO":999,"REV_AT_EPOCH":31780,"BSTAR":0.00014022,"MEAN_MOTION_DOT":6.6e-7,"MEAN_MOTION_DDOT":0},{"OBJECT_NAME":"ONEWEB-0011","OBJECT_ID":"2019-010F","EPOCH":"2025-10-04T10:54:24.791904","MEAN_MOTION":13.15547442,"ECCENTRICITY":0.0002058,"INCLINATION":87.8992,"RA_OF_ASC_NODE":310.2198,"ARG_OF_PERICENTER":98.7707,"MEAN_ANOMALY":261.3656,"EPHEMERIS_TYPE":0,"CLASSIFICATION_TYPE":"U","NORAD_CAT_ID":44062,"ELEMENT_SET_NO":999,"REV_AT_EPOCH":31779,"BSTAR":0.0002525,"MEAN_MOTION_DOT":1.08e-6,"MEAN_MOTION_DDOT":0},{"OBJECT_NAME":"ONEWEB-0013","OBJECT_ID":"2020-008A","EPOCH":"2025-10-04T11:55:57.204768","MEAN_MOTION":13.09437998,"ECCENTRICITY":0.0001432,"INCLINATION":87.8464,"RA_OF_ASC_NODE":104.4655,"ARG_OF_PERICENTER":50.0597,"MEAN_ANOMALY":310.0656,"EPHEMERIS_TYPE":0,"CLASSIFICATION_TYPE":"U","NORAD_CAT_ID":45131,"ELEMENT_SET_NO":999,"REV_AT_EPOCH":27260,"BSTAR":0.00079677,"MEAN_MOTION_DOT":2.87e-6,"MEAN_MOTION_DDOT":0},{"OBJECT_NAME":"ONEWEB-0017","OBJECT_ID":"2020-008B","EPOCH":"2025-10-03T10:31:27.527520","MEAN_MOTION":13.10375094,"ECCENTRICITY":0.00017037,"INCLINATION":87.8742,"RA_OF_ASC_NODE":87.4671,"ARG_OF_PERICENTER":98.8136,"MEAN_ANOMALY":261.3184,"EPHEMERIS_TYPE":0,"CLASSIFICATION_TYPE":"U","NORAD_CAT_ID":45132,"ELEMENT_SET_NO":999,"REV_AT_EPOCH":27432,"BSTAR":-0.0011675585,"MEAN_MOTION_DOT":-3.95e-6,"MEAN_MOTION_DDOT":0},{"OBJECT_NAME":"ONEWEB-0020","OBJECT_ID":"2020-008C","EPOCH":"2025-10-04T11:27:49.766976","MEAN_MOTION":13.10370127,"ECCENTRICITY":0.0001867,"INCLINATION":87.8738,"RA_OF_ASC_NODE":87.2424,"ARG_OF_PERICENTER":90.1879,"MEAN_ANOMALY":269.9462,"EPHEMERIS_TYPE":0,"CLASSIFICATION_TYPE":"U","NORAD_CAT_ID":45133,"ELEMENT_SET_NO":999,"REV_AT_EPOCH":27485,"BSTAR":0.0011781,"MEAN_MOTION_DOT":4.24e-6,"MEAN_MOTION_DDOT":0},{"OBJECT_NAME":"ONEWEB-0021","OBJECT_ID":"2020-008D","EPOCH":"2025-10-04T11:49:18.891264","MEAN_MOTION":13.10371106,"ECCENTRICITY":0.0001589,"INCLINATION":87.8738,"RA_OF_ASC_NODE":87.2737,"ARG_OF_PERICENTER":92.261,"MEAN_ANOMALY":267.8699,"EPHEMERIS_TYPE":0,"CLASSIFICATION_TYPE":"U","NORAD_CAT_ID":45134,"ELEMENT_SET_NO":999,"REV_AT_EPOCH":27516,"BSTAR":-0.0012446,"MEAN_MOTION_DOT":-4.22e-6,"MEAN_MOTION_DDOT":0},{"OBJECT_NAME":"ONEWEB-0023","OBJECT_ID":"2020-008F","EPOCH":"2025-10-04T12:04:51.148992","MEAN_MOTION":13.10373453,"ECCENTRICITY":0.0001797,"INCLINATION":87.8743,"RA_OF_ASC_NODE":87.2535,"ARG_OF_PERICENTER":83.2148,"MEAN_ANOMALY":276.9183,"EPHEMERIS_TYPE":0,"CLASSIFICATION_TYPE":"U","NORAD_CAT_ID":45136,"ELEMENT_SET_NO":999,"REV_AT_EPOCH":27459,"BSTAR":-0.0016763,"MEAN_MOTION_DOT":-5.72e-6,"MEAN_MOTION_DDOT":0},{"OBJECT_NAME":"ONEWEB-0024","OBJECT_ID":"2020-008G","EPOCH":"2025-10-04T11:25:26.290272","MEAN_MOTION":13.10372049,"ECCENTRICITY":0.0001619,"INCLINATION":87.8758,"RA_OF_ASC_NODE":87.2148,"ARG_OF_PERICENTER":92.6972,"MEAN_ANOMALY":267.434,"EPHEMERIS_TYPE":0,"CLASSIFICATION_TYPE":"U","NORAD_CAT_ID":45137,"ELEMENT_SET_NO":999,"REV_AT_EPOCH":27475,"BSTAR":0.0011662,"MEAN_MOTION_DOT":4.2e-6,"MEAN_MOTION_DDOT":0},{"OBJECT_NAME":"ONEWEB-0025","OBJECT_ID":"2020-008H","EPOCH":"2025-10-04T11:50:30.224832","MEAN_MOTION":13.10370917,"ECCENTRICITY":0.0001337,"INCLINATION":87.8753,"RA_OF_ASC_NODE":87.2207,"ARG_OF_PERICENTER":70.5629,"MEAN_ANOMALY":289.5643,"EPHEMERIS_TYPE":0,"CLASSIFICATION_TYPE":"U","NORAD_CAT_ID":45138,"ELEMENT_SET_NO":999,"REV_AT_EPOCH":27508,"BSTAR":-0.0012988,"MEAN_MOTION_DOT":-4.41e-6,"MEAN_MOTION_DDOT":0},{"OBJECT_NAME":"ONEWEB-0026","OBJECT_ID":"2020-008J","EPOCH":"2025-10-04T11:42:51.081408","MEAN_MOTION":13.11418117,"ECCENTRICITY":0.0001817,"INCLINATION":87.8801,"RA_OF_ASC_NODE":71.9918,"ARG_OF_PERICENTER":98.1067,"MEAN_ANOMALY":262.0267,"EPHEMERIS_TYPE":0,"CLASSIFICATION_TYPE":"U","NORAD_CAT_ID":45139,"ELEMENT_SET_NO":999,"REV_AT_EPOCH":27759,"BSTAR":0.0010623,"MEAN_MOTION_DOT":3.89e-6,"MEAN_MOTION_DDOT":0},{"OBJECT_NAME":"ONEWEB-0028","OBJECT_ID":"2020-008K","EPOCH":"2025-10-04T10:40:34.360032","MEAN_MOTION":13.1141329,"ECCENTRICITY":0.0001334,"INCLINATION":87.8794,"RA_OF_ASC_NODE":72.0202,"ARG_OF_PERICENTER":73.2816,"MEAN_ANOMALY":286.8458,"EPHEMERIS_TYPE":0,"CLASSIFICATION_TYPE":"U","NORAD_CAT_ID":45140,"ELEMENT_SET_NO":999,"REV_AT_EPOCH":27510,"BSTAR":-0.00011134,"MEAN_MOTION_DOT":-2.7e-7,"MEAN_MOTION_DDOT":0},{"OBJECT_NAME":"ONEWEB-0032","OBJECT_ID":"2020-008L","EPOCH":"2025-10-03T10:33:50.791680","MEAN_MOTION":13.10376112,"ECCENTRICITY":0.00015731,"INCLINATION":87.8743,"RA_OF_ASC_NODE":87.4668,"ARG_OF_PERICENTER":83.9927,"MEAN_ANOMALY":276.1379,"EPHEMERIS_TYPE":0,"CLASSIFICATION_TYPE":"U","NORAD_CAT_ID":45141,"ELEMENT_SET_NO":999,"REV_AT_EPOCH":27467,"BSTAR":-0.001532939,"MEAN_MOTION_DOT":-5.22e-6,"MEAN_MOTION_DDOT":0},{"OBJECT_NAME":"ONEWEB-0033","OBJECT_ID":"2020-008M","EPOCH":"2025-10-04T11:37:22.599840","MEAN_MOTION":13.10370925,"ECCENTRICITY":0.0001717,"INCLINATION":87.8739,"RA_OF_ASC_NODE":87.2701,"ARG_OF_PERICENTER":97.2948,"MEAN_ANOMALY":262.8374,"EPHEMERIS_TYPE":0,"CLASSIFICATION_TYPE":"U","NORAD_CAT_ID":45142,"ELEMENT_SET_NO":999,"REV_AT_EPOCH":27472,"BSTAR":0.0002324,"MEAN_MOTION_DOT":9.4e-7,"MEAN_MOTION_DDOT":0}]
